{
  "norad_id": 51754,
  "name": "STARLINK-3457",
  "history": [
    {
      "epoch": "2026-03-28T17:52:38.312832Z",
      "apogee_km": 540.5210503583385,
      "perigee_km": 539.0526518417028,
      "latitude_deg": 5.13038502187153e-05,
      "longitude_deg": 129.0155704832259,
      "height_km": 540.6265942139672,
      "semi_major_axis_km": 6917.92385110002,
      "eccentricity": 0.00010613,
      "inclination_deg": 53.217,
      "raan_deg": 223.3361,
      "arg_perigee_deg": 85.6005,
      "mean_anomaly_deg": 274.5109,
      "mean_motion_rev_day": 15.08825781
    },
    {
      "epoch": "2026-03-29T01:49:33.840768Z",
      "apogee_km": 540.5016793492732,
      "perigee_km": 539.0281662397183,
      "latitude_deg": 1.0442589662207822e-06,
      "longitude_deg": 7.97112277130476,
      "height_km": 540.6222680035219,
      "semi_major_axis_km": 6917.9019227944955,
      "eccentricity": 0.0001065,
      "inclination_deg": 53.2172,
      "raan_deg": 221.8495,
      "arg_perigee_deg": 86.9857,
      "mean_anomaly_deg": 273.1257,
      "mean_motion_rev_day": 15.08832955
    },
    {
      "epoch": "2026-03-29T08:11:06.470304Z",
      "apogee_km": 540.483553157691,
      "perigee_km": 539.0206963233732,
      "latitude_deg": -1.3639180139407293e-05,
      "longitude_deg": -88.86550188038737,
      "height_km": 540.6173326621677,
      "semi_major_axis_km": 6917.889124740532,
      "eccentricity": 0.00010573,
      "inclination_deg": 53.2172,
      "raan_deg": 220.66,
      "arg_perigee_deg": 87.5793,
      "mean_anomaly_deg": 272.532,
      "mean_motion_rev_day": 15.08837142
    },
    {
      "epoch": "2026-03-30T14:23:26.076768Z",
      "apogee_km": 540.422181279012,
      "perigee_km": 539.0553473854952,
      "latitude_deg": -2.12740053116577e-05,
      "longitude_deg": 171.1627062727754,
      "height_km": 540.6114503069418,
      "semi_major_axis_km": 6917.875764332253,
      "eccentricity": 9.879e-05,
      "inclination_deg": 53.2174,
      "raan_deg": 215.0104,
      "arg_perigee_deg": 88.0268,
      "mean_anomaly_deg": 272.0837,
      "mean_motion_rev_day": 15.08841513
    },
    {
      "epoch": "2026-03-31T14:14:13.553952Z",
      "apogee_km": 540.5020417887072,
      "perigee_km": 538.9524401987255,
      "latitude_deg": -2.2296808364635437e-05,
      "longitude_deg": 168.02524337103625,
      "height_km": 540.7294277460975,
      "semi_major_axis_km": 6917.8642409937165,
      "eccentricity": 0.000112,
      "inclination_deg": 53.2163,
      "raan_deg": 210.5501,
      "arg_perigee_deg": 97.882,
      "mean_anomaly_deg": 262.2299,
      "mean_motion_rev_day": 15.08845283
    }
  ]
}